[
    {
        "Altitude(m)": 706872.304630821,
        "Argument of Periapsis(deg)": 0.006834072711976239,
        "Eccentricity": 0.0,
        "Inclination(deg)": 45.0,
        "Latitude(deg)": 43.20227209759812,
        "Longitude(deg)": 95.4666791395485,
        "Mean Anomaly(deg)": 105.10172998848849,
        "RAAN(deg)": 84.99354883512508,
        "Satellite Name": "Constellation 1 380",
        "Satellite Number": 380,
        "Semi-Major Axis(m)": 7083131.272910544,
        "Time(s)": 114
    },
    {
        "Altitude(m)": 706868.8817890038,
        "Argument of Periapsis(deg)": 0.006894020718221645,
        "Eccentricity": 0.0,
        "Inclination(deg)": 45.0,
        "Latitude(deg)": 43.18688199537051,
        "Longitude(deg)": 95.54296198111179,
        "Mean Anomaly(deg)": 105.1624311287384,
        "RAAN(deg)": 84.99349224595952,
        "Satellite Name": "Constellation 1 380",
        "Satellite Number": 380,
        "Semi-Major Axis(m)": 7083131.272910544,
        "Time(s)": 115
    },
    {
        "Altitude(m)": 706865.4469080409,
        "Argument of Periapsis(deg)": 0.006953968724467052,
        "Eccentricity": 0.0,
        "Inclination(deg)": 45.0,
        "Latitude(deg)": 43.17143541413391,
        "Longitude(deg)": 95.61920439468395,
        "Mean Anomaly(deg)": 105.2231322689883,
        "RAAN(deg)": 84.99343565679395,
        "Satellite Name": "Constellation 1 380",
        "Satellite Number": 380,
        "Semi-Major Axis(m)": 7083131.272910544,
        "Time(s)": 116
    },
    {
        "Altitude(m)": 706862.0000083096,
        "Argument of Periapsis(deg)": 0.007013916730712457,
        "Eccentricity": 0.0,
        "Inclination(deg)": 45.0,
        "Latitude(deg)": 43.1559324122376,
        "Longitude(deg)": 95.69540627467056,
        "Mean Anomaly(deg)": 105.28383340923818,
        "RAAN(deg)": 84.99337906762837,
        "Satellite Name": "Constellation 1 380",
        "Satellite Number": 380,
        "Semi-Major Axis(m)": 7083131.272910544,
        "Time(s)": 117
    },
    {
        "Altitude(m)": 706858.5411102431,
        "Argument of Periapsis(deg)": 0.007073864736957864,
        "Eccentricity": 0.0,
        "Inclination(deg)": 45.0,
        "Latitude(deg)": 43.1403730481686,
        "Longitude(deg)": 95.77156751603994,
        "Mean Anomaly(deg)": 105.34453454948806,
        "RAAN(deg)": 84.9933224784628,
        "Satellite Name": "Constellation 1 380",
        "Satellite Number": 380,
        "Semi-Major Axis(m)": 7083131.272910544,
        "Time(s)": 118
    },
    {
        "Altitude(m)": 706855.0702343554,
        "Argument of Periapsis(deg)": 0.0071338127432032696,
        "Eccentricity": 0.0,
        "Inclination(deg)": 45.0,
        "Latitude(deg)": 43.12475738055083,
        "Longitude(deg)": 95.84768784622614,
        "Mean Anomaly(deg)": 105.40523568973796,
        "RAAN(deg)": 84.99326588929725,
        "Satellite Name": "Constellation 1 380",
        "Satellite Number": 380,
        "Semi-Major Axis(m)": 7083131.272910544,
        "Time(s)": 119
    },
    {
        "Altitude(m)": 706851.5874012408,
        "Argument of Periapsis(deg)": 0.007193760749448674,
        "Eccentricity": 0.0,
        "Inclination(deg)": 45.0,
        "Latitude(deg)": 43.109085468144194,
        "Longitude(deg)": 95.92376749751821,
        "Mean Anomaly(deg)": 105.4659368299879,
        "RAAN(deg)": 84.99320930013167,
        "Satellite Name": "Constellation 1 380",
        "Satellite Number": 380,
        "Semi-Major Axis(m)": 7083131.272910544,
        "Time(s)": 120
    },
    {
        "Altitude(m)": 706848.0926315519,
        "Argument of Periapsis(deg)": 0.007253708755694079,
        "Eccentricity": 0.0,
        "Inclination(deg)": 45.0,
        "Latitude(deg)": 43.09335736984362,
        "Longitude(deg)": 95.99980619847695,
        "Mean Anomaly(deg)": 105.5266379702378,
        "RAAN(deg)": 84.9931527109661,
        "Satellite Name": "Constellation 1 380",
        "Satellite Number": 380,
        "Semi-Major Axis(m)": 7083131.272910544,
        "Time(s)": 121
    },
    {
        "Altitude(m)": 706844.5859460267,
        "Argument of Periapsis(deg)": 0.0073136567619394854,
        "Eccentricity": 0.0,
        "Inclination(deg)": 45.0,
        "Latitude(deg)": 43.077573144678176,
        "Longitude(deg)": 96.0758038463241,
        "Mean Anomaly(deg)": 105.58733911048769,
        "RAAN(deg)": 84.99309612180052,
        "Satellite Name": "Constellation 1 380",
        "Satellite Number": 380,
        "Semi-Major Axis(m)": 7083131.272910544,
        "Time(s)": 122
    },
    {
        "Altitude(m)": 706841.0673654734,
        "Argument of Periapsis(deg)": 0.0073736047681848904,
        "Eccentricity": 0.0,
        "Inclination(deg)": 45.0,
        "Latitude(deg)": 43.061732851810085,
        "Longitude(deg)": 96.15176033884543,
        "Mean Anomaly(deg)": 105.64804025073755,
        "RAAN(deg)": 84.99303953263495,
        "Satellite Name": "Constellation 1 380",
        "Satellite Number": 380,
        "Semi-Major Axis(m)": 7083131.272910544,
        "Time(s)": 123
    },
    {
        "Altitude(m)": 706837.5369107682,
        "Argument of Periapsis(deg)": 0.007433552774430298,
        "Eccentricity": 0.0,
        "Inclination(deg)": 45.0,
        "Latitude(deg)": 43.04583655053394,
        "Longitude(deg)": 96.22767557439118,
        "Mean Anomaly(deg)": 105.70874139098748,
        "RAAN(deg)": 84.99298294346939,
        "Satellite Name": "Constellation 1 380",
        "Satellite Number": 380,
        "Semi-Major Axis(m)": 7083131.272910544,
        "Time(s)": 124
    },
    {
        "Altitude(m)": 706833.9946028618,
        "Argument of Periapsis(deg)": 0.007493500780675703,
        "Eccentricity": 0.0,
        "Inclination(deg)": 45.0,
        "Latitude(deg)": 43.02988430027569,
        "Longitude(deg)": 96.3035494518757,
        "Mean Anomaly(deg)": 105.76944253123739,
        "RAAN(deg)": 84.99292635430382,
        "Satellite Name": "Constellation 1 380",
        "Satellite Number": 380,
        "Semi-Major Axis(m)": 7083131.272910544,
        "Time(s)": 125
    },
    {
        "Altitude(m)": 706830.4404627836,
        "Argument of Periapsis(deg)": 0.007553448786921108,
        "Eccentricity": 0.0,
        "Inclination(deg)": 45.0,
        "Latitude(deg)": 43.013876160591714,
        "Longitude(deg)": 96.37938170268072,
        "Mean Anomaly(deg)": 105.83014367148728,
        "RAAN(deg)": 84.99286976513825,
        "Satellite Name": "Constellation 1 380",
        "Satellite Number": 380,
        "Semi-Major Axis(m)": 7083131.272910544,
        "Time(s)": 126
    },
    {
        "Altitude(m)": 706826.8745116264,
        "Argument of Periapsis(deg)": 0.007613396793166514,
        "Eccentricity": 0.0,
        "Inclination(deg)": 45.0,
        "Latitude(deg)": 42.99781219116796,
        "Longitude(deg)": 96.45517256304477,
        "Mean Anomaly(deg)": 105.89084481173717,
        "RAAN(deg)": 84.99281317597269,
        "Satellite Name": "Constellation 1 380",
        "Satellite Number": 380,
        "Semi-Major Axis(m)": 7083131.272910544,
        "Time(s)": 127
    },
    {
        "Altitude(m)": 706823.2967705594,
        "Argument of Periapsis(deg)": 0.007673344799411918,
        "Eccentricity": 0.0,
        "Inclination(deg)": 45.0,
        "Latitude(deg)": 42.981692451818994,
        "Longitude(deg)": 96.53092176547936,
        "Mean Anomaly(deg)": 105.95154595198706,
        "RAAN(deg)": 84.9927565868071,
        "Satellite Name": "Constellation 1 380",
        "Satellite Number": 380,
        "Semi-Major Axis(m)": 7083131.272910544,
        "Time(s)": 128
    },
    {
        "Altitude(m)": 706819.7072608252,
        "Argument of Periapsis(deg)": 0.007733292805657325,
        "Eccentricity": 0.0,
        "Inclination(deg)": 45.0,
        "Latitude(deg)": 42.96551700248713,
        "Longitude(deg)": 96.60662921115835,
        "Mean Anomaly(deg)": 106.01224709223699,
        "RAAN(deg)": 84.99269999764154,
        "Satellite Name": "Constellation 1 380",
        "Satellite Number": 380,
        "Semi-Major Axis(m)": 7083131.272910544,
        "Time(s)": 129
    },
    {
        "Altitude(m)": 706816.1060037379,
        "Argument of Periapsis(deg)": 0.00779324081190273,
        "Eccentricity": 0.0,
        "Inclination(deg)": 45.0,
        "Latitude(deg)": 42.949285903241424,
        "Longitude(deg)": 96.68229480182085,
        "Mean Anomaly(deg)": 106.07294823248688,
        "RAAN(deg)": 84.99264340847596,
        "Satellite Name": "Constellation 1 380",
        "Satellite Number": 380,
        "Semi-Major Axis(m)": 7083131.272910544,
        "Time(s)": 130
    },
    {
        "Altitude(m)": 706812.493020683,
        "Argument of Periapsis(deg)": 0.007853188818148135,
        "Eccentricity": 0.0,
        "Inclination(deg)": 45.0,
        "Latitude(deg)": 42.93299921427688,
        "Longitude(deg)": 96.75791843977117,
        "Mean Anomaly(deg)": 106.1336493727368,
        "RAAN(deg)": 84.9925868193104,
        "Satellite Name": "Constellation 1 380",
        "Satellite Number": 380,
        "Semi-Major Axis(m)": 7083131.272910544,
        "Time(s)": 131
    },
    {
        "Altitude(m)": 706808.8683331178,
        "Argument of Periapsis(deg)": 0.007913136824393542,
        "Eccentricity": 0.0,
        "Inclination(deg)": 45.0,
        "Latitude(deg)": 42.9166569959135,
        "Longitude(deg)": 96.8335000278791,
        "Mean Anomaly(deg)": 106.19435051298665,
        "RAAN(deg)": 84.99253023014484,
        "Satellite Name": "Constellation 1 380",
        "Satellite Number": 380,
        "Semi-Major Axis(m)": 7083131.272910544,
        "Time(s)": 132
    }
]